[
    {
        "Altitude(m)": 605470.799043829,
        "Argument of Periapsis(deg)": 0.0,
        "Eccentricity": 0.0,
        "Inclination(deg)": 60.0,
        "Latitude(deg)": 27.988235517563187,
        "Longitude(deg)": 92.26293686390468,
        "Mean Anomaly(deg)": 147.2727,
        "RAAN(deg)": 30.0,
        "Satellite Name": "Test1 141",
        "Satellite Number": 141,
        "Semi-Major Axis(m)": 6980739.136638005,
        "Time(s)": 0
    },
    {
        "Altitude(m)": 605395.8368520373,
        "Argument of Periapsis(deg)": 0.00010418945913296404,
        "Eccentricity": 0.0,
        "Inclination(deg)": 60.0,
        "Latitude(deg)": 27.473926335473866,
        "Longitude(deg)": 92.61612495517193,
        "Mean Anomaly(deg)": 147.8928061454618,
        "RAAN(deg)": 29.99957995086026,
        "Satellite Name": "Test1 141",
        "Satellite Number": 141,
        "Semi-Major Axis(m)": 6980739.136638005,
        "Time(s)": 10
    }
]